{"version": 0.6, "generator": "Overpass API 0.7.62.8 e802775f", "osm3s": {"timestamp_osm_base": "2025-11-04T22:20:30Z", "timestamp_areas_base": "2025-11-04T19:04:13Z", "copyright": "The data included in this document is from www.openstreetmap.org. The data is made available under ODbL."}, "elements": [{"type": "node", "id": 4574896892, "lat": -26.9111837, "lon": -49.1097179, "tags": {"addr:floor": "1", "addr:housenumber": "1868", "addr:postcode": "89037-256", "addr:street": "Rua Frei Estanislau Schaette", "contact:email": "datavideolocadora@gmail.com", "contact:phone": "+55 47 3328-1828", "description": "Aluguel de filmes, jogos, bebidas, revistas, livros, colecionáveis e agora com assistência técnica em celulares e videogames", "internet_access": "wlan", "level": "1", "name": "Data Video e Game Locadora", "opening_hours": "Mo-Sa 09:00-20:30", "operator": "Vilmar", "shop": "video", "wifi": "yes"}}, {"type": "node", "id": 4574914889, "lat": -26.9153902, "lon": -49.1130728, "tags": {"addr:housenumber": "471", "addr:postcode": "89040-000", "addr:street": "Rua dos Caçadores", "contact:email": "datavideolocadora@gmail.com", "contact:phone": "+55 47 3328-1828", "description": "Locadora de filmes, bomboniere, salgadinhos, refrigerante, cervejas, revistas, livros, colecionáveis e presentes", "fixme": "confirmar localização", "internet_access": "wlan", "name": "Data Video Locadora", "name:en": "Data Video Cine", "opening_hours": "Mo-Sa 09:00-20:30", "shop": "video", "wifi": "yes"}}, {"type": "node", "id": 4904386664, "lat": -26.9176398, "lon": -49.0709146, "tags": {"contact:mobile": "+55 47 99602-0000", "contact:phone": "+55 47 3327-7546", "contact:website": "https://www.lilyatelier.com.br", "level": "0", "name": "Lily Aluguel de Trajes", "opening_hours": "Mo-Fr 12:00-19:00", "rental": "yes", "shop": "clothes"}}, {"type": "node", "id": 5018741324, "lat": -27.676195, "lon": -48.4843922, "tags": {"amenity": "motorcycle_rental", "name": "Aluguel de Motos Campeche", "name:en": "Motorcycle Rental Campeche", "name:es": "Alquiler de Moto Campeche"}}, {"type": "node", "id": 5262729616, "lat": -27.1367585, "lon": -48.5972808, "tags": {"addr:door": "Sala 01", "amenity": "car_rental", "name": "Locadora Litorânea"}}, {"type": "node", "id": 5340649323, "lat": -26.7282088, "lon": -53.5121792, "tags": {"addr:housenumber": "4130", "addr:postcode": "89900-000", "addr:street": "Rua Willy Barth", "amenity": "car_rental", "contact:phone": "+55 49 3622-1715", "internet_access": "wlan", "name": "MDS Locadora de Veículos"}}, {"type": "node", "id": 5483783421, "lat": -26.4813138, "lon": -49.0809178, "tags": {"name": "Aluguel de Trajes Dama de Noiva", "opening_hours": "Mo-Fr 08:30-12:00, 13:30-18:00; Sa 08:30-12:00", "phone": "+55 47 3276-1342", "shop": "clothes"}}, {"type": "node", "id": 5721547501, "lat": -26.8939918, "lon": -49.065221, "tags": {"contact:phone": "+55 47 3323-7897", "name": "Vídeo Arte Locadora", "shop": "video", "wheelchair": "yes"}}, {"type": "node", "id": 5981695894, "lat": -28.444722, "lon": -48.9541313, "tags": {"name": "Focus Vídeo Locadora", "phone": "+55 48 3623 0381", "shop": "video"}}, {"type": "node", "id": 6137931290, "lat": -26.9141326, "lon": -49.1154146, "tags": {"addr:door": "Sala 02", "contact:email": "atendimento@alphadrones.com.br", "contact:facebook": "https://facebook.com/alphadronesblu", "contact:phone": "+55 47 4102-2010;+55 47 99680-6464", "contact:website": "https://alphadrones.com.br/", "name": "Alpha Drones Comércio e Serviços", "shop": "electronics"}}, {"type": "node", "id": 10007447100, "lat": -28.3402016, "lon": -49.6245087, "tags": {"amenity": "car_rental", "name": "Nathan Autolocadora"}}, {"type": "node", "id": 10653786853, "lat": -27.4299228, "lon": -48.3983028, "tags": {"addr:city": "Florianópolis", "addr:postcode": "88058-500", "addr:street": "Rua Caminho do Marisco", "addr:suburb": "Ingleses", "name": "Aluguel de Temporada", "name:en": "Apartment Rent", "phone": "+55 48 99127-4009", "tourism": "apartment", "website": "https://www.airbnb.com.br/rooms/46811248?_set_bev_on_new_domain=1676042406_ZTZiZjczYTk5YWJj&source_impression_id=p3_1676269691_QfaG4nA646GoV1xh"}}, {"type": "node", "id": 10653820362, "lat": -27.4353003, "lon": -48.3932014, "tags": {"addr:city": "Florianópolis", "addr:postcode": "88058-500", "addr:street": "Rua das Gaivotas", "addr:suburb": "Ingleses", "check_date:currency:XBT": "2023-02-13", "currency:XBT": "no", "name": "Aluguel de Temporada", "payment:lightning": "no", "payment:onchain": "no", "phone": "+55 48 99127-4009", "survey:date": "2025-02-11", "tourism": "apartment", "website": "https://www.airbnb.com.br/rooms/40426283?_set_bev_on_new_domain=1676042406_ZTZiZjczYTk5YWJj&source_impression_id=p3_1676269467_NL64R9HYw%2Fferxvs"}}, {"type": "node", "id": 11669801783, "lat": -26.0741267, "lon": -48.6065003, "tags": {"name": "Imóveis Mavic", "office": "estate_agent"}}, {"type": "way", "id": 133369644, "center": {"lat": -27.5973652, "lon": -48.5844782}, "nodes": [1468106957, 1468107006, 1468106967, 1468107018, 1468106968, 1468106959, 1468106957], "tags": {"addr:housenumber": "1420", "addr:postcode": "88070-101", "addr:street": "Rua Santos Saraiva", "amenity": "car_rental", "building": "yes", "name": "Carrera Locadora de Veículos"}}, {"type": "way", "id": 194015561, "center": {"lat": -27.0999531, "lon": -52.6204248}, "nodes": [2045277619, 2045277635, 2045277627, 2045277617, 2045277619], "tags": {"addr:street": "Rua Benjamin Constant - E", "amenity": "car_rental", "brand": "Localiza", "building": "transportation", "name": "Localiza Aluguel de Carros", "phone": "+55-49-3322-3575"}}, {"type": "way", "id": 365783968, "center": {"lat": -26.4834409, "lon": -49.08468}, "nodes": [3697972911, 8743317889, 8743317888, 8743317887, 8743317886, 3697972908, 8743317885, 8743317884, 8743317883, 8743317882, 3697972909, 8743317881, 8743310508, 3697972910, 8743317880, 8743317879, 8743317878, 8743317877, 3697972911], "tags": {"addr:city": "Jaraguá do Sul", "addr:housenumber": "184", "addr:street": "Rua Expedicionário Antônio Carlos Ferreira", "addr:suburb": "Centro", "building": "yes", "building:levels": "2", "name": "Doce Mel Aluguel de Trajes", "phone": "+55 47 3371 3349", "shop": "clothes", "source": "survey", "website": "http://www.docemeltrajes.com.br/"}}, {"type": "way", "id": 431686965, "center": {"lat": -27.6638551, "lon": -48.5438356}, "nodes": [4309125086, 4309125087, 4309129298, 4309129297, 4309125086], "tags": {"addr:housenumber": "3385", "addr:street": "Avenida Deputado Diomício Freitas", "amenity": "car_rental", "name": "Movami Aluguel de Autos", "phone": "+55 48 3334 4337", "website": "https://movami.com.br/"}}, {"type": "way", "id": 671894889, "center": {"lat": -27.1342218, "lon": -52.64631}, "nodes": [6291862219, 6291862218, 6291862217, 6291862216, 6291862219], "tags": {"addr:housenumber": "3100", "addr:street": "Acesso Florenal Ribeiro", "amenity": "car_rental", "brand": "Unidas;National;Alamo", "name": "Unidas Aluguel de Carros", "operator:type": "private", "website": "https://unidas.com.br/"}}, {"type": "way", "id": 681908807, "center": {"lat": -27.8845856, "lon": -48.5852974}, "nodes": [6386064557, 6386064558, 6386064559, 6386064560, 6386064557], "tags": {"building": "yes", "name": "Locadora do Dé", "shop": "video"}}, {"type": "way", "id": 690503879, "center": {"lat": -26.9249241, "lon": -48.9672403}, "nodes": [6478275783, 6478275784, 6478277486, 6478277487, 6478275783], "tags": {"addr:city": "Gaspar", "addr:housenumber": "972", "addr:postcode": "89110-110", "addr:street": "Rua Doutor Nereu Ramos", "addr:suburb": "Coloninha", "building": "retail", "description": "Aluguel de trajes sociais", "name": "Divyne Aluguel de Trajes Sociais", "rental": "yes", "shop": "clothes"}}, {"type": "way", "id": 724107012, "center": {"lat": -27.2116456, "lon": -49.6338688}, "nodes": [6791027571, 6791027570, 6791027566, 6791027569, 6791027568, 6791027567, 6791027571], "tags": {"addr:housenumber": "1232", "addr:street": "Alameda Aristiliano Ramos", "amenity": "car_rental", "barrier": "wall", "landuse": "garages", "name": "LOCALIZA Aluguel de Carros", "website": "https://www.localizahertz.com/brasil/pt-br"}}, {"type": "way", "id": 997925615, "center": {"lat": -26.2253975, "lon": -48.8011982}, "nodes": [9214181215, 9214181216, 9214202317, 9214202318, 9214181215], "tags": {"addr:city": "Joinville", "addr:housenumber": "9000", "addr:postcode": "89226-435", "addr:street": "Avenida Santos Dumont", "addr:suburb": "Aventureiro", "building": "carport", "building:colour": "orange", "layer": "1", "name": "Movida Aluguel de Carros"}}, {"type": "way", "id": 997925616, "center": {"lat": -26.2254323, "lon": -48.8017891}, "nodes": [9214202319, 9214202320, 9214202321, 9214202322, 9214202319], "tags": {"addr:city": "Joinville", "addr:postcode": "89226-435", "addr:street": "Avenida Santos Dumont", "addr:suburb": "Aventureiro", "building": "yes", "building:colour": "green", "name": "Localiza Aluguel de Carros"}}, {"type": "way", "id": 1002325025, "center": {"lat": -27.587002, "lon": -48.6804317}, "nodes": [9250745429, 9250745430, 9250745431, 9250745432, 9250745433, 9250745434, 9250745429], "tags": {"addr:city": "São José", "addr:housenumber": "70", "addr:postcode": "88107-740", "addr:street": "Rua José Paulo Ramos Back", "addr:suburb": "Forquilhas", "air_conditioning": "yes", "building": "yes", "currency:BRL": "yes", "internet_access": "yes", "name": "Aluguel Gerador", "opening_hours": "24/7", "operator": "Aluguel Gerador", "payment:cash": "yes", "payment:credit_cards": "yes", "payment:debit_cards": "yes", "phone": "+55 48 3299 5010", "shop": "yes", "start_date": "2000-04-19", "website": "https://www.aluguelgerador.com/", "wheelchair": "yes"}}, {"type": "way", "id": 1136815884, "center": {"lat": -27.6833419, "lon": -48.7480734}, "nodes": [10597136209, 10597136210, 10597136211, 10597136212, 10597136209], "tags": {"addr:city": "Santo Amaro da Imperatriz", "addr:postcode": "88140-000", "addr:street": "Rua Leopoldo Broering", "addr:suburb": "Vila Becker", "building": "yes", "name": "Aluguel"}}, {"type": "way", "id": 1431706271, "center": {"lat": -27.6643392, "lon": -48.5423959}, "nodes": [13159845572, 13159845573, 13159845574, 13159845578, 13159845577, 13159845576, 13159845575, 13159845572], "tags": {"addr:housenumber": "3125", "addr:street": "Avenida Deputado Diomício Freitas", "addr:suburb": "Carianos", "amenity": "car_rental", "branch": "Florianópolis - Aeroporto (FLN)", "name": "Foco Locadora de Veiculos", "opening_hours": "24/7", "payment:credit_cards": "yes", "phone": "+55 48 4007 2109", "website": "https://www.aluguefoco.com.br/"}}, {"type": "way", "id": 1431710404, "center": {"lat": -27.6626916, "lon": -48.5435605}, "nodes": [13159867712, 13159867713, 13159867714, 13159867715, 13159867716, 13159867717, 13159867712], "tags": {"addr:housenumber": "50", "addr:street": "Rua Antônio Domingos de Souza", "amenity": "car_rental", "name": "Carmoov Aluguel de Carros", "opening_hours": "24/7", "payment:credit_cards": "yes", "website": "https://carmoov.com.br/"}}]}